[{"OBJECT_NAME":"STARLINK-5452","OBJECT_ID":"2022-175Q","EPOCH":"2026-02-07T15:46:35.526432","MEAN_MOTION":15.08840251,"ECCENTRICITY":0.00011595,"INCLINATION":53.2172,"RA_OF_ASC_NODE":164.0823,"ARG_OF_PERICENTER":82.6862,"MEAN_ANOMALY":277.4262,"EPHEMERIS_TYPE":0,"CLASSIFICATION_TYPE":"U","NORAD_CAT_ID":54772,"ELEMENT_SET_NO":999,"REV_AT_EPOCH":17559,"BSTAR":8.063237e-5,"MEAN_MOTION_DOT":9.96e-6,"MEAN_MOTION_DDOT":0},{"OBJECT_NAME":"STARLINK-5453","OBJECT_ID":"2022-175R","EPOCH":"2026-02-07T15:15:24.122304","MEAN_MOTION":15.08843369,"ECCENTRICITY":0.000111,"INCLINATION":53.2171,"RA_OF_ASC_NODE":178.9155,"ARG_OF_PERICENTER":88.2452,"MEAN_ANOMALY":271.8667,"EPHEMERIS_TYPE":0,"CLASSIFICATION_TYPE":"U","NORAD_CAT_ID":54773,"ELEMENT_SET_NO":999,"REV_AT_EPOCH":17538,"BSTAR":0.00014049,"MEAN_MOTION_DOT":1.949e-5,"MEAN_MOTION_DDOT":0},{"OBJECT_NAME":"STARLINK-5454","OBJECT_ID":"2022-175S","EPOCH":"2026-02-07T14:42:54.055296","MEAN_MOTION":15.08839006,"ECCENTRICITY":0.0001637,"INCLINATION":53.2169,"RA_OF_ASC_NODE":163.822,"ARG_OF_PERICENTER":113.7608,"MEAN_ANOMALY":246.3556,"EPHEMERIS_TYPE":0,"CLASSIFICATION_TYPE":"U","NORAD_CAT_ID":54774,"ELEMENT_SET_NO":999,"REV_AT_EPOCH":17559,"BSTAR":8.251e-6,"MEAN_MOTION_DOT":-1.57e-6,"MEAN_MOTION_DDOT":0},{"OBJECT_NAME":"STARLINK-5465","OBJECT_ID":"2022-175T","EPOCH":"2026-02-07T15:10:07.327200","MEAN_MOTION":15.08832386,"ECCENTRICITY":0.000125,"INCLINATION":53.2174,"RA_OF_ASC_NODE":178.8934,"ARG_OF_PERICENTER":89.9151,"MEAN_ANOMALY":270.1984,"EPHEMERIS_TYPE":0,"CLASSIFICATION_TYPE":"U","NORAD_CAT_ID":54775,"ELEMENT_SET_NO":999,"REV_AT_EPOCH":17538,"BSTAR":-3.8073e-5,"MEAN_MOTION_DOT":-8.94e-6,"MEAN_MOTION_DDOT":0},{"OBJECT_NAME":"STARLINK-5470","OBJECT_ID":"2022-175U","EPOCH":"2026-02-07T14:38:16.053792","MEAN_MOTION":15.08838238,"ECCENTRICITY":0.0001344,"INCLINATION":53.2172,"RA_OF_ASC_NODE":178.7567,"ARG_OF_PERICENTER":99.9599,"MEAN_ANOMALY":260.1545,"EPHEMERIS_TYPE":0,"CLASSIFICATION_TYPE":"U","NORAD_CAT_ID":54776,"ELEMENT_SET_NO":999,"REV_AT_EPOCH":17538,"BSTAR":7.2367e-5,"MEAN_MOTION_DOT":8.64e-6,"MEAN_MOTION_DDOT":0},{"OBJECT_NAME":"STARLINK-5468","OBJECT_ID":"2022-175V","EPOCH":"2026-02-07T16:40:11.965152","MEAN_MOTION":15.08832931,"ECCENTRICITY":0.0001229,"INCLINATION":53.2171,"RA_OF_ASC_NODE":178.5719,"ARG_OF_PERICENTER":77.6525,"MEAN_ANOMALY":282.4604,"EPHEMERIS_TYPE":0,"CLASSIFICATION_TYPE":"U","NORAD_CAT_ID":54777,"ELEMENT_SET_NO":999,"REV_AT_EPOCH":17539,"BSTAR":1.6662721e-5,"MEAN_MOTION_DOT":-2.3e-7,"MEAN_MOTION_DDOT":0},{"OBJECT_NAME":"STARLINK-5450","OBJECT_ID":"2022-175W","EPOCH":"2026-02-08T07:29:50.366400","MEAN_MOTION":15.08832533,"ECCENTRICITY":0.0001068,"INCLINATION":53.2177,"RA_OF_ASC_NODE":161.0618,"ARG_OF_PERICENTER":81.8678,"MEAN_ANOMALY":278.2435,"EPHEMERIS_TYPE":0,"CLASSIFICATION_TYPE":"U","NORAD_CAT_ID":54778,"ELEMENT_SET_NO":999,"REV_AT_EPOCH":17569,"BSTAR":0.0001645708,"MEAN_MOTION_DOT":2.332e-5,"MEAN_MOTION_DDOT":0},{"OBJECT_NAME":"STARLINK-5447","OBJECT_ID":"2022-175X","EPOCH":"2026-02-07T15:41:16.536768","MEAN_MOTION":15.08846631,"ECCENTRICITY":0.00012252,"INCLINATION":53.2182,"RA_OF_ASC_NODE":164.0578,"ARG_OF_PERICENTER":83.74,"MEAN_ANOMALY":276.3732,"EPHEMERIS_TYPE":0,"CLASSIFICATION_TYPE":"U","NORAD_CAT_ID":54779,"ELEMENT_SET_NO":999,"REV_AT_EPOCH":17559,"BSTAR":5.8848059e-5,"MEAN_MOTION_DOT":6.49e-6,"MEAN_MOTION_DDOT":0},{"OBJECT_NAME":"STARLINK-5449","OBJECT_ID":"2022-175Y","EPOCH":"2026-02-07T15:14:44.970144","MEAN_MOTION":15.08841285,"ECCENTRICITY":0.0001283,"INCLINATION":53.2161,"RA_OF_ASC_NODE":163.9418,"ARG_OF_PERICENTER":88.4278,"MEAN_ANOMALY":271.6861,"EPHEMERIS_TYPE":0,"CLASSIFICATION_TYPE":"U","NORAD_CAT_ID":54780,"ELEMENT_SET_NO":999,"REV_AT_EPOCH":17559,"BSTAR":2.3746e-5,"MEAN_MOTION_DOT":9.0e-7,"MEAN_MOTION_DDOT":0},{"OBJECT_NAME":"STARLINK-5443","OBJECT_ID":"2022-175Z","EPOCH":"2026-02-07T13:55:17.991840","MEAN_MOTION":15.08831846,"ECCENTRICITY":0.0001737,"INCLINATION":53.2181,"RA_OF_ASC_NODE":164.3058,"ARG_OF_PERICENTER":91.1044,"MEAN_ANOMALY":269.0147,"EPHEMERIS_TYPE":0,"CLASSIFICATION_TYPE":"U","NORAD_CAT_ID":54781,"ELEMENT_SET_NO":999,"REV_AT_EPOCH":17558,"BSTAR":-5.8598e-6,"MEAN_MOTION_DOT":-3.81e-6,"MEAN_MOTION_DDOT":0},{"OBJECT_NAME":"STARLINK-5439","OBJECT_ID":"2022-175AB","EPOCH":"2026-02-08T07:19:13.677024","MEAN_MOTION":15.08833921,"ECCENTRICITY":0.00011187,"INCLINATION":53.217,"RA_OF_ASC_NODE":161.0176,"ARG_OF_PERICENTER":100.0551,"MEAN_ANOMALY":260.0567,"EPHEMERIS_TYPE":0,"CLASSIFICATION_TYPE":"U","NORAD_CAT_ID":54783,"ELEMENT_SET_NO":999,"REV_AT_EPOCH":17569,"BSTAR":0.00017083568,"MEAN_MOTION_DOT":2.432e-5,"MEAN_MOTION_DDOT":0},{"OBJECT_NAME":"STARLINK-5442","OBJECT_ID":"2022-175AC","EPOCH":"2026-02-07T16:34:52.437216","MEAN_MOTION":15.08840906,"ECCENTRICITY":0.00012046,"INCLINATION":53.2165,"RA_OF_ASC_NODE":178.5488,"ARG_OF_PERICENTER":89.2074,"MEAN_ANOMALY":270.9056,"EPHEMERIS_TYPE":0,"CLASSIFICATION_TYPE":"U","NORAD_CAT_ID":54784,"ELEMENT_SET_NO":999,"REV_AT_EPOCH":17539,"BSTAR":0.00011595911,"MEAN_MOTION_DOT":1.558e-5,"MEAN_MOTION_DDOT":0},{"OBJECT_NAME":"STARLINK-5440","OBJECT_ID":"2022-175AD","EPOCH":"2026-02-08T05:17:17.877120","MEAN_MOTION":15.08886877,"ECCENTRICITY":0.00015632,"INCLINATION":53.2174,"RA_OF_ASC_NODE":121.285,"ARG_OF_PERICENTER":79.8099,"MEAN_ANOMALY":280.307,"EPHEMERIS_TYPE":0,"CLASSIFICATION_TYPE":"U","NORAD_CAT_ID":54785,"ELEMENT_SET_NO":999,"REV_AT_EPOCH":17624,"BSTAR":-0.00056154545,"MEAN_MOTION_DOT":-9.225e-5,"MEAN_MOTION_DDOT":0},{"OBJECT_NAME":"STARLINK-5441","OBJECT_ID":"2022-175AF","EPOCH":"2026-02-07T14:54:12.680640","MEAN_MOTION":15.08820393,"ECCENTRICITY":0.0001684,"INCLINATION":53.2167,"RA_OF_ASC_NODE":178.8264,"ARG_OF_PERICENTER":128.4134,"MEAN_ANOMALY":231.701,"EPHEMERIS_TYPE":0,"CLASSIFICATION_TYPE":"U","NORAD_CAT_ID":54787,"ELEMENT_SET_NO":999,"REV_AT_EPOCH":17538,"BSTAR":-9.0458e-5,"MEAN_MOTION_DOT":-1.727e-5,"MEAN_MOTION_DDOT":0},{"OBJECT_NAME":"STARLINK-5399","OBJECT_ID":"2022-175AG","EPOCH":"2026-02-07T15:09:26.605152","MEAN_MOTION":15.08839649,"ECCENTRICITY":0.0001237,"INCLINATION":53.2173,"RA_OF_ASC_NODE":163.9248,"ARG_OF_PERICENTER":86.4546,"MEAN_ANOMALY":273.6588,"EPHEMERIS_TYPE":0,"CLASSIFICATION_TYPE":"U","NORAD_CAT_ID":54788,"ELEMENT_SET_NO":999,"REV_AT_EPOCH":17559,"BSTAR":3.11e-5,"MEAN_MOTION_DOT":2.07e-6,"MEAN_MOTION_DDOT":0},{"OBJECT_NAME":"STARLINK-5446","OBJECT_ID":"2022-175AH","EPOCH":"2026-02-08T07:02:37.536000","MEAN_MOTION":15.08836892,"ECCENTRICITY":0.00012129,"INCLINATION":53.217,"RA_OF_ASC_NODE":145.8542,"ARG_OF_PERICENTER":84.7405,"MEAN_ANOMALY":275.3726,"EPHEMERIS_TYPE":0,"CLASSIFICATION_TYPE":"U","NORAD_CAT_ID":54789,"ELEMENT_SET_NO":999,"REV_AT_EPOCH":17590,"BSTAR":0.00014052951,"MEAN_MOTION_DOT":1.949e-5,"MEAN_MOTION_DDOT":0},{"OBJECT_NAME":"STARLINK-5445","OBJECT_ID":"2022-175AJ","EPOCH":"2026-02-07T14:58:50.758176","MEAN_MOTION":15.08829986,"ECCENTRICITY":0.0001391,"INCLINATION":53.2182,"RA_OF_ASC_NODE":163.8858,"ARG_OF_PERICENTER":82.0201,"MEAN_ANOMALY":278.0949,"EPHEMERIS_TYPE":0,"CLASSIFICATION_TYPE":"U","NORAD_CAT_ID":54790,"ELEMENT_SET_NO":999,"REV_AT_EPOCH":17559,"BSTAR":4.9196e-5,"MEAN_MOTION_DOT":4.95e-6,"MEAN_MOTION_DDOT":0},{"OBJECT_NAME":"STARLINK-5425","OBJECT_ID":"2022-175AK","EPOCH":"2026-02-08T07:13:55.445088","MEAN_MOTION":15.08835536,"ECCENTRICITY":0.00011256,"INCLINATION":53.2172,"RA_OF_ASC_NODE":160.9935,"ARG_OF_PERICENTER":98.6122,"MEAN_ANOMALY":261.4998,"EPHEMERIS_TYPE":0,"CLASSIFICATION_TYPE":"U","NORAD_CAT_ID":54791,"ELEMENT_SET_NO":999,"REV_AT_EPOCH":17569,"BSTAR":9.1210026e-5,"MEAN_MOTION_DOT":1.164e-5,"MEAN_MOTION_DDOT":0},{"OBJECT_NAME":"STARLINK-5431","OBJECT_ID":"2022-175AL","EPOCH":"2026-02-07T16:18:57.517632","MEAN_MOTION":15.08825314,"ECCENTRICITY":0.0001148,"INCLINATION":53.2164,"RA_OF_ASC_NODE":178.4824,"ARG_OF_PERICENTER":110.1278,"MEAN_ANOMALY":249.9838,"EPHEMERIS_TYPE":0,"CLASSIFICATION_TYPE":"U","NORAD_CAT_ID":54792,"ELEMENT_SET_NO":999,"REV_AT_EPOCH":17539,"BSTAR":-0.00011781406,"MEAN_MOTION_DOT":-2.162e-5,"MEAN_MOTION_DDOT":0},{"OBJECT_NAME":"STARLINK-5433","OBJECT_ID":"2022-175AM","EPOCH":"2026-02-08T07:15:14.844960","MEAN_MOTION":15.08843182,"ECCENTRICITY":0.00013097,"INCLINATION":53.2177,"RA_OF_ASC_NODE":151.0586,"ARG_OF_PERICENTER":85.1544,"MEAN_ANOMALY":274.9598,"EPHEMERIS_TYPE":0,"CLASSIFICATION_TYPE":"U","NORAD_CAT_ID":54793,"ELEMENT_SET_NO":999,"REV_AT_EPOCH":17583,"BSTAR":6.3129464e-5,"MEAN_MOTION_DOT":7.17e-6,"MEAN_MOTION_DDOT":0},{"OBJECT_NAME":"STARLINK-5436","OBJECT_ID":"2022-175AP","EPOCH":"2026-02-07T13:28:45.683904","MEAN_MOTION":15.08834891,"ECCENTRICITY":0.0001113,"INCLINATION":53.2166,"RA_OF_ASC_NODE":164.2008,"ARG_OF_PERICENTER":97.237,"MEAN_ANOMALY":262.8749,"EPHEMERIS_TYPE":0,"CLASSIFICATION_TYPE":"U","NORAD_CAT_ID":54795,"ELEMENT_SET_NO":999,"REV_AT_EPOCH":17558,"BSTAR":7.6616e-6,"MEAN_MOTION_DOT":-1.66e-6,"MEAN_MOTION_DDOT":0},{"OBJECT_NAME":"STARLINK-5415","OBJECT_ID":"2022-175AQ","EPOCH":"2026-02-07T14:53:31.154208","MEAN_MOTION":15.08846498,"ECCENTRICITY":0.0001069,"INCLINATION":53.2172,"RA_OF_ASC_NODE":163.8584,"ARG_OF_PERICENTER":86.769,"MEAN_ANOMALY":273.3425,"EPHEMERIS_TYPE":0,"CLASSIFICATION_TYPE":"U","NORAD_CAT_ID":54796,"ELEMENT_SET_NO":999,"REV_AT_EPOCH":17559,"BSTAR":1.6211e-5,"MEAN_MOTION_DOT":-3.0e-7,"MEAN_MOTION_DDOT":0},{"OBJECT_NAME":"STARLINK-5435","OBJECT_ID":"2022-175AR","EPOCH":"2026-02-07T15:11:29.674176","MEAN_MOTION":15.0883192,"ECCENTRICITY":0.000124,"INCLINATION":53.2172,"RA_OF_ASC_NODE":178.8963,"ARG_OF_PERICENTER":83.2168,"MEAN_ANOMALY":276.8966,"EPHEMERIS_TYPE":0,"CLASSIFICATION_TYPE":"U","NORAD_CAT_ID":54797,"ELEMENT_SET_NO":999,"REV_AT_EPOCH":17538,"BSTAR":-2.2694e-5,"MEAN_MOTION_DOT":-6.49e-6,"MEAN_MOTION_DDOT":0}]
